     2.01           GLONASS NAV DATA                        RINEX VERSION / TYPE
CCRINEXG V1.4 UX    CDDIS               11-JUN- 9 16:53     PGM / RUN BY / DATE 
IGS BROADCAST EPHEMERIS FILE                                COMMENT             
CCRINEXG V1.4 UX    CDDIS               11-JUN- 9 03:53     COMMENT             
  2009     6    10    0.189524143934E-06                    CORR TO SYSTEM TIME 
    15                                                      LEAP SECONDS        
                                                            END OF HEADER       
18 09  6 10 23 45  0.0-0.424310564995E-05-0.909494701773E-12 0.846000000000E+05
   -0.242151367188E+04-0.180314064026E+00-0.186264514923E-08 0.000000000000E+00
   -0.251475068359E+05-0.406210899353E+00 0.000000000000E+00-0.300000000000E+01
   -0.297245605469E+04 0.355525207519E+01 0.931322574616E-09 0.000000000000E+00
19 09  6 10 23 45  0.0-0.961618497968E-04-0.909494701773E-12 0.846300000000E+05
   -0.909433398438E+04-0.195910453796E+00-0.931322574615E-09 0.000000000000E+00
   -0.153319711914E+05-0.249437999725E+01 0.000000000000E+00 0.300000000000E+01
   -0.182368911133E+05 0.219377422333E+01 0.279396772385E-08 0.000000000000E+00
20 09  6 10 23 45  0.0-0.665681436658E-04 0.000000000000E+00 0.846000000000E+05
   -0.106064702148E+05-0.793371200562E-01 0.931322574615E-09 0.000000000000E+00
    0.384353906250E+04-0.313456821442E+01 0.000000000000E+00 0.200000000000E+01
   -0.228680356445E+05-0.483477592468E+00 0.186264514923E-08 0.000000000000E+00
21 09  6 10 23 45  0.0-0.151927582920E-03-0.181898940355E-11 0.846000000000E+05
   -0.586625195313E+04 0.545654296875E-01 0.279396772385E-08 0.000000000000E+00
    0.203345952148E+05-0.194784450531E+01 0.000000000000E+00 0.400000000000E+01
   -0.141616879883E+05-0.282771396637E+01 0.000000000000E+00 0.000000000000E+00
22 09  6 10 23 45  0.0-0.218296423554E-03-0.909494701773E-12 0.846000000000E+05
    0.242257812500E+04 0.199777603149E+00 0.186264514923E-08 0.000000000000E+00
    0.252870981445E+05 0.396305084229E+00 0.000000000000E+00-0.300000000000E+01
    0.300417724609E+04-0.353666687012E+01-0.186264514923E-08 0.000000000000E+00
23 09  6 10 23 45  0.0-0.177612528205E-04 0.000000000000E+00 0.846300000000E+05
    0.921071533203E+04 0.183924674988E+00 0.000000000000E+00 0.100000000000E+01
    0.147849262695E+05 0.254766559601E+01 0.000000000000E+00 0.300000000000E+01
    0.186599267578E+05-0.210690212250E+01-0.279396772385E-08 0.000000000000E+00
24 09  6 10 23 45  0.0-0.115505419672E-03 0.000000000000E+00 0.846600000000E+05
    0.000000000000E+00 0.000000000000E+00 0.000000000000E+00 0.100000000000E+01
    0.000000000000E+00 0.000000000000E+00 0.000000000000E+00 0.200000000000E+01
    0.000000000000E+00 0.000000000000E+00 0.000000000000E+00 0.140000000000E+02
